[{"OBJECT_NAME":"PRAETORIAN SDA_603","OBJECT_ID":"2025-203B","EPOCH":"2026-03-09T13:37:04.528992","MEAN_MOTION":13.83903559,"ECCENTRICITY":0.001079,"INCLINATION":81.3003,"RA_OF_ASC_NODE":102.8981,"ARG_OF_PERICENTER":102.3539,"MEAN_ANOMALY":257.8826,"EPHEMERIS_TYPE":0,"CLASSIFICATION_TYPE":"U","NORAD_CAT_ID":65566,"ELEMENT_SET_NO":999,"REV_AT_EPOCH":2492,"BSTAR":0.0001631,"MEAN_MOTION_DOT":1.93e-6,"MEAN_MOTION_DDOT":0},{"OBJECT_NAME":"SL-16 DEB","OBJECT_ID":"1993-016AA","EPOCH":"2026-03-09T11:57:18.631584","MEAN_MOTION":13.74002663,"ECCENTRICITY":0.01884138,"INCLINATION":70.9939,"RA_OF_ASC_NODE":93.8722,"ARG_OF_PERICENTER":318.6578,"MEAN_ANOMALY":195.0938,"EPHEMERIS_TYPE":0,"CLASSIFICATION_TYPE":"U","NORAD_CAT_ID":22616,"ELEMENT_SET_NO":999,"REV_AT_EPOCH":65139,"BSTAR":0.00014139617,"MEAN_MOTION_DOT":1.07e-6,"MEAN_MOTION_DDOT":0}]
